HALOSAT                 
1 43549U 98067NX  20149.06450446  .00013629  00000-0  10413-3 0  9993
2 43549  51.6362  35.1179 0003307  40.3724 319.7520 15.72522638106600
ENDUROSAT ONE           
1 43551U 98067NZ  20149.13450932  .00040131  00000-0  21665-3 0  9993
2 43551  51.6352  24.2193 0002666  56.2126 303.9129 15.79716987107167
EQUISAT                 
1 43552U 98067PA  20149.10141723  .00021328  00000-0  15465-3 0  9994
2 43552  51.6363  33.1504 0003977  39.8190 320.3100 15.73360595107008
AEROCUBE 12A            
1 43556U 18046C   20148.40157665  .00000267  00000-0  21506-4 0  9994
2 43556  51.6415 206.7072 0007938 218.0352 142.0068 15.29752739104151
AEROCUBE 12B            
1 43557U 18046D   20149.37328849  .00000564  00000-0  31883-4 0  9995
2 43557  51.6413 202.6834 0007988 221.1113 138.9266 15.29475075104245
UITMSAT-1               
1 43589U 98067PD  20149.03287907  .00030746  00000-0  19810-3 0  9993
2 43589  51.6353  31.7597 0003687  63.2598 296.8778 15.75872475102756
MAYA-1                  
1 43590U 98067PE  20148.96223889  .00030998  00000-0  19969-3 0  9999
2 43590  51.6323  32.0425 0003591  58.6794 301.4557 15.75871923102675
BHUTAN-1                
1 43591U 98067PF  20149.06351307  .00031393  00000-0  20088-3 0  9993
2 43591  51.6368  31.2863 0003778  62.7119 297.4265 15.76018108102697
SIRIUSSAT-1             
1 43595U 98067PG  20149.21221801  .00023743  00000-0  16969-3 0  9992
2 43595  51.6336  35.2458 0001557  47.1290 312.9839 15.73630148101836
SIRIUSSAT-2             
1 43596U 98067PH  20149.08206299  .00025490  00000-0  18273-3 0  9993
2 43596  51.6343  36.6999 0001828  33.3176 326.7938 15.73512560101808
TANUSHA-3               
1 43597U 98067PJ  20149.05250156  .00061069  00000-0  27831-3 0  9994
2 43597  51.6298  25.0076 0001238 117.4298 242.6831 15.83207075101957
SURFSAT                 
1 43614U 18070B   20149.44554243  .00002288  00000-0  59010-4 0  9990
2 43614  93.0199 146.3196 0017822  60.4948 299.8080 15.39097038 95401
CP7 (DAVE)              
1 43615U 18070C   20149.54013617  .00002216  00000-0  57435-4 0  9997
2 43615  93.0202 146.3501 0017950  59.6966 300.6061 15.38956939 95413
ELFIN-B                 
1 43616U 18070D   20149.40289554  .00003248  00000-0  80520-4 0  9995
2 43616  93.0165 146.2296 0018483  61.7318 298.5800 15.40262282 95431
ELFIN-A                 
1 43617U 18070E   20149.43854676  .00003440  00000-0  84832-4 0  9996
2 43617  93.0216 146.7398 0017783  59.1105 301.1896 15.40434850 95443
CUBEBEL-1 (BSUSAT-1)    
1 43666U 18083E   20149.60211046  .00001112  00000-0  57527-4 0  9996
2 43666  97.4893 176.2619 0016581  71.1089  48.9227 15.18226519 87609
DEBRISSAT-2             
1 43680U 98067PR  20149.11173603  .01618259  11856-4  77119-3 0  9994
2 43680  51.6224  10.9603 0011619 264.7400  95.2293 16.20499778110873
CICERO 10               
1 43690U 18088A   20149.28502653  .00000755  00000-0  32903-4 0  9992
2 43690  85.0379  91.6099 0016127  32.0725 328.1493 15.20205802 85677
IRVINE01                
1 43693U 18088D   20149.31877022  .00002332  00000-0  97657-4 0  9994
2 43693  85.0351  90.3394 0018512  13.6900 346.4840 15.22794653 85784
PROXIMA I               
1 43694U 18088E   20149.30025993  .00000873  00000-0  36329-4 0  9993
2 43694  85.0323  90.1822 0019387   4.9823 355.1608 15.21941990 85771
PROXIMA II              
1 43696U 18088G   20149.43001004  .00000889  00000-0  37043-4 0  9997
2 43696  85.0324  90.0998 0019423   4.4305 355.7104 15.21944662 85796
FACSAT-1                
1 43721U 18096C   20149.35808555  .00001194  00000-0  47458-4 0  9993
2 43721  97.4210 223.0404 0017375 188.2965 171.7990 15.27170972 83320
CENTAURI-2              
1 43722U 18096D   20149.19418505  .00001574  00000-0  60731-4 0  9999
2 43722  97.4221 223.1334 0017385 188.6676 171.4266 15.27682607 83304
INNOSAT-2               
1 43738U 18096V   20149.51620775  .00002148  00000-0  75573-4 0  9994
2 43738  97.4234 225.3406 0023075 196.0262 164.0252 15.30234012 83485
SIRION PATHFINDER-2     
1 43759U 18099B   20149.30177192 -.00000078  00000-0 -18465-5 0  9997
2 43759  97.7060 221.3044 0012777 248.3730 111.6130 14.95271841 80920
CORVUS-BC 4             
1 43767U 18099K   20148.83383687 -.00000012  00000-0  41561-5 0  9991
2 43767  97.7041 220.2776 0010272 254.2041 105.8047 14.94717621 80828
MOVE-II                 
1 43780U 18099Y   20149.24961982  .00000014  00000-0  64303-5 0  9992
2 43780  97.7065 221.1780 0012046 260.8929  99.0929 14.95382410 80898
SPACEBEE-7              
1 43816U 18099BL  20149.12602623  .00000145  00000-0  18211-4 0  9994
2 43816  97.7076 221.4358 0012141 243.6690 116.3285 14.95676667 80454
SPACEBEE-5              
1 43817U 18099BM  20149.28824768  .00001375  00000-0  12672-3 0  9998
2 43817  97.7132 222.0091 0011620 241.2655 118.7399 14.96272171 80494
SPACEBEE-6              
1 43818U 18099BN  20148.69068712  .00000860  00000-0  82015-4 0  9999
2 43818  97.7096 221.1361 0011786 244.3624 115.6379 14.95865644 80549
SHIELDS 1               
1 43850U 18104B   20149.14132942  .00000042  00000-0  00000-0 0  9992
2 43850  85.0286 188.7797 0016435 137.7466 222.5044 15.21370859 80380
STF-1                   
1 43852U 18104D   20149.15285823  .00000042  00000-0  00000-0 0  9992
2 43852  85.0316 189.2999 0015422 150.3870 209.8259 15.21244537 80368
ZACUBE-2                
1 43907U 18111AH  20149.36834617  .00000368  00000-0  17717-4 0  9993
2 43907  97.2674  49.7358 0020508 210.7836 149.2200 15.24572474 78956
LUME 1                  
1 43908U 18111AJ  20149.36392508  .00000747  00000-0  32588-4 0  9996
2 43908  97.2674  49.8888 0020242 210.3091 149.6978 15.25004111 78966
AOBA VELOX-IV           
1 43940U 19003J   20149.10291398  .00001455  00000-0  60847-4 0  9996
2 43940  97.2292 201.0789 0022130 297.3721  62.5265 15.24947279 75546
CATSAT-2                
1 44029U 98067PV  20149.26318450  .00013452  00000-0  14163-3 0  9997
2 44029  51.6390  58.3424 0004174  27.1361 332.9851 15.64620477 75361
DELPHINI                
1 44030U 98067PW  20148.20782364  .00015173  00000-0  15341-3 0  9992
2 44030  51.6352  62.4406 0003826  25.7930 334.3256 15.65530374 75188
UNITE                   
1 44031U 98067PX  20148.82446405  .00007572  00000-0  94537-4 0  9993
2 44031  51.6380  65.8752 0003114  19.1144 340.9966 15.60969156 75196
CATSAT-1                
1 44033U 98067PZ  20149.13538528  .00014974  00000-0  15710-3 0  9997
2 44033  51.6394  58.9952 0004086  25.2987 334.8207 15.64602469 75252
RAAVANA-1               
1 44329U 98067QE  20149.04884530  .00007998  00000-0  11303-3 0  9994
2 44329  51.6394  76.4230 0004814 292.3743  67.6739 15.57540902 53825
UGUISU                  
1 44330U 98067QF  20149.06027350  .00008164  00000-0  11555-3 0  9992
2 44330  51.6392  76.4954 0004816 290.6635  69.3841 15.57466479 53808
NEPALISAT-1             
1 44331U 98067QG  20148.97743680  .00007751  00000-0  10964-3 0  9997
2 44331  51.6390  76.6950 0004881 293.7142  66.3338 15.57567176 53808
SPOOQY-1                
1 44332U 98067QH  20148.97968647  .00007791  00000-0  11054-3 0  9995
2 44332  51.6391  76.7072 0003872 299.2375  60.8229 15.57477840 53765
SPACEBEE-9              
1 44370U 19037F   20149.60266204  .00006249  00000-0  14535-3 0  9992
2 44370  45.0126 226.7083 0011728  61.5696 298.6373 15.43193470 51537
SPACEBEE-8              
1 44371U 19037G   20149.53366143  .00012650  00000-0  25010-3 0  9991
2 44371  45.0154 221.9867 0009725  59.8497 300.3359 15.47148828 51579
IOD-1 GEMS              
1 44385U 98067QK  20149.12474482  .00012786  00000-0  16350-3 0  9994
2 44385  51.6406  74.7243 0001138 229.7384 130.3510 15.59610894 51325
MOVE-IIB                
1 44398U 19038N   20149.43790991  .00000863  00000-0  53371-4 0  9997
2 44398  97.5348 110.9265 0024625 192.7426 167.3185 15.12283399 49557
SONATE                  
1 44400U 19038Q   20149.46762478  .00000259  00000-0  18853-4 0  9998
2 44400  97.5384 110.9727 0024803 191.3063 168.7613 15.11937542 49550
LUCKY-7                 
1 44406U 19038W   20149.35444434  .00000399  00000-0  26757-4 0  9998
2 44406  97.5377 110.9580 0024231 191.2675 168.8016 15.12198409 49536
BEESAT 9                
1 44412U 19038AC  20148.89090503  .00000618  00000-0  39332-4 0  9994
2 44412  97.5369 110.4814 0022073 198.4780 161.5651 15.12269701 49165
JAISAT-1                
1 44419U 19038F   20149.44693394  .00000623  00000-0  39146-4 0  9999
2 44419  97.5372 111.2796 0020996 195.3749 164.6846 15.12753557 49579
SWIATOWID               
1 44426U 98067QL  20149.42564910  .00016396  00000-0  20171-3 0  9996
2 44426  51.6418  72.7411 0001147 213.3096 252.9294 15.60396450 51385
KRAKSAT                 
1 44427U 98067QM  20149.37504807  .00006206  00000-0  95366-4 0  9998
2 44427  51.6436  77.6741 0002347 222.6174 237.8072 15.55705619 51357
VCC A                   
1 44428U 98067QN  20149.22586277  .00007113  00000-0  10357-3 0  9998
2 44428  51.6410  76.8953 0001391 262.2837  97.7997 15.56928056 51352
ENTRYSAT                
1 44429U 98067QP  20149.07947184  .00009706  00000-0  13424-3 0  9998
2 44429  51.6394  76.6449 0001097 243.9327 116.1553 15.57839424 51349
VCC C                   
1 44430U 98067QQ  20149.06719026  .00011357  00000-0  14967-3 0  9999
2 44430  51.6393  75.8228 0000815 275.5388  84.5512 15.58938818 50172
VCC B                   
1 44431U 98067QR  20148.19909482  .00007368  00000-0  10696-3 0  9992
2 44431  51.6402  82.0255 0001538 255.8253 104.2568 15.56947685 51137
ATL-1                   
1 44830U 19084G   20149.28591430  .00039324  00000-0  24205-3 0  9996
2 44830  96.9763  18.2740 0025089 316.3547  43.5735 15.76652686 27273
SMOG-P                  
1 44832U 19084J   20149.55194685  .00049354  00000-0  28920-3 0  9991
2 44832  96.9771  18.6748 0023729 313.7179  46.2123 15.77769631 27324
